{"type":"FeatureCollection","name":"city-of-sarasota","metadata":{"source":"City of Sarasota GIS, 'Municipal Boundary (View Only)' feature service (owner Payne.Ringling), layer 0, NAME='City of Sarasota', MUNIAREA=24.067 sq mi, LASTUPDATE=2025-03-25","source_url":"https://services3.arcgis.com/AWDwYUpli8WqpWxQ/arcgis/rest/services/Municipal_Boundary_(View_Only)/FeatureServer/0","cross_checks":{"census_tiger_incorporated_place":{"geoid":"1264175","name":"Sarasota city","area_sqmi":24.09,"symmetric_difference_sqmi":0.07},"sarasota_county_countyzoning_municipality_CS":{"land_sqmi":14.83,"share_inside_this_polygon":"99.9%"}},"notes":"WGS84 (lng,lat), 6-decimal precision, original vertex count preserved (no simplification). Includes bay and Gulf water inside the corporate limits, as the City publishes it. St Armands, Lido Key and Bird Key are inside the City and therefore overlap the existing st-armands-lido and bird-key polygons; downtown-sarasota is fully inside. Slivers under 1 acre dropped.","pulled":"2026-09-16"},"features":[{"type":"Feature","properties":{"area_slug":"city-of-sarasota","zone_name":"City of Sarasota \u2014 main","zone_type":"municipality","acres":15351.8},"geometry":{"type":"Polygon","coordinates":[[[-82.498585,27.330368],[-82.505247,27.330395],[-82.50524,27.329955],[-82.503682,27.32995],[-82.503687,27.328672],[-82.503688,27.328536],[-82.503689,27.328262],[-82.504112,27.328261],[-82.504408,27.328261],[-82.505252,27.32826],[-82.505252,27.327816],[-82.505254,27.326454],[-82.505247,27.32283],[-82.50574,27.322825],[-82.505778,27.322825],[-82.505773,27.322763],[-82.505769,27.322718],[-82.505777,27.31915],[-82.508364,27.319159],[-82.509921,27.319162],[-82.510649,27.319163],[-82.510649,27.31883],[-82.510804,27.318831],[-82.510802,27.319164],[-82.511576,27.319166],[-82.511577,27.318832],[-82.511577,27.318696],[-82.511578,27.318359],[-82.511732,27.318359],[-82.511732,27.317887],[-82.511271,27.317887],[-82.511271,27.317549],[-82.511656,27.31755],[-82.511657,27.317215],[-82.512077,27.317217],[-82.512078,27.317079],[-82.512078,27.316728],[-82.512079,27.316408],[-82.51208,27.31627],[-82.512081,27.315599],[-82.513041,27.3156],[-82.51304,27.316272],[-82.513609,27.316272],[-82.513612,27.315601],[-82.513642,27.31545],[-82.513644,27.314831],[-82.513312,27.31483],[-82.513312,27.314555],[-82.513645,27.314556],[-82.513657,27.311897],[-82.513681,27.311897],[-82.513681,27.311861],[-82.513683,27.311586],[-82.513988,27.311587],[-82.513986,27.311862],[-82.513986,27.311895],[-82.514119,27.311894],[-82.516036,27.311895],[-82.515916,27.31167],[-82.516033,27.31161],[-82.516319,27.311609],[-82.516343,27.311901],[-82.51665,27.311897],[-82.516651,27.31161],[-82.516972,27.31161],[-82.517297,27.311611],[-82.51748,27.311614],[-82.517798,27.311617],[-82.518087,27.311619],[-82.518085,27.311895],[-82.518378,27.311895],[-82.518378,27.311621],[-82.518686,27.311623],[-82.519001,27.311625],[-82.51906,27.311639],[-82.519015,27.311891],[-82.522124,27.311892],[-82.523973,27.311888],[-82.5243,27.311888],[-82.524317,27.311888],[-82.524382,27.311888],[-82.524629,27.311886],[-82.525053,27.311887],[-82.525387,27.311889],[-82.525484,27.309666],[-82.525489,27.309529],[-82.525503,27.309185],[-82.525531,27.308283],[-82.525534,27.308229],[-82.525536,27.308199],[-82.525551,27.307811],[-82.525566,27.307423],[-82.525578,27.30738],[-82.525608,27.307282],[-82.525643,27.306494],[-82.525636,27.306441],[-82.525625,27.306359],[-82.525644,27.305645],[-82.52565,27.305544],[-82.525654,27.305481],[-82.525677,27.304875],[-82.525682,27.304757],[-82.525684,27.304683],[-82.525707,27.304077],[-82.525709,27.304026],[-82.525715,27.303885],[-82.525726,27.303572],[-82.52574,27.303197],[-82.525753,27.302867],[-82.525781,27.302196],[-82.52578,27.302013],[-82.525789,27.301683],[-82.52571,27.301683],[-82.52375,27.30169],[-82.522377,27.301694],[-82.522442,27.299541],[-82.524135,27.299536],[-82.524137,27.299446],[-82.524137,27.299398],[-82.524145,27.299172],[-82.524152,27.298963],[-82.525017,27.298962],[-82.525016,27.298866],[-82.525016,27.298825],[-82.525017,27.298775],[-82.525019,27.298693],[-82.525024,27.298074],[-82.525023,27.297562],[-82.525255,27.297561],[-82.525417,27.297561],[-82.525744,27.297561],[-82.525871,27.29756],[-82.526032,27.29756],[-82.526188,27.297561],[-82.526391,27.297561],[-82.526562,27.297559],[-82.526563,27.297089],[-82.526859,27.297089],[-82.526859,27.297078],[-82.527011,27.297078],[-82.527167,27.297078],[-82.527319,27.297077],[-82.527935,27.297076],[-82.527934,27.29735],[-82.527934,27.297473],[-82.527934,27.297617],[-82.527934,27.297748],[-82.527934,27.297886],[-82.527933,27.297986],[-82.527933,27.298023],[-82.527933,27.298161],[-82.527933,27.298212],[-82.527933,27.298258],[-82.527933,27.298298],[-82.528085,27.298292],[-82.528086,27.298039],[-82.528394,27.298038],[-82.528394,27.298066],[-82.528393,27.298258],[-82.528701,27.298258],[-82.528701,27.298313],[-82.528853,27.298312],[-82.528956,27.298312],[-82.529161,27.298312],[-82.529162,27.297624],[-82.529237,27.297624],[-82.529283,27.297624],[-82.529346,27.297623],[-82.52947,27.297623],[-82.52947,27.297463],[-82.52947,27.297349],[-82.52935,27.297348],[-82.52927,27.297349],[-82.529212,27.297349],[-82.529162,27.297349],[-82.529163,27.297058],[-82.529163,27.297038],[-82.529164,27.297005],[-82.529599,27.297004],[-82.529599,27.29671],[-82.529599,27.296523],[-82.529599,27.296481],[-82.529599,27.296386],[-82.529599,27.296208],[-82.5296,27.296056],[-82.5296,27.29594],[-82.529536,27.29594],[-82.529501,27.29594],[-82.529474,27.29594],[-82.529477,27.295147],[-82.529465,27.295124],[-82.528946,27.295124],[-82.528659,27.295124],[-82.52854,27.295122],[-82.528126,27.295105],[-82.526481,27.295093],[-82.526481,27.29504],[-82.526483,27.294692],[-82.526486,27.294242],[-82.526489,27.294029],[-82.526498,27.293321],[-82.526524,27.293321],[-82.526576,27.293321],[-82.526838,27.293323],[-82.527115,27.293324],[-82.527423,27.293326],[-82.527731,27.293328],[-82.528106,27.29333],[-82.528555,27.293332],[-82.528655,27.293333],[-82.528962,27.293337],[-82.529267,27.293342],[-82.529578,27.293345],[-82.529579,27.293102],[-82.529741,27.293103],[-82.529846,27.293104],[-82.529886,27.293105],[-82.529883,27.293369],[-82.530236,27.293371],[-82.530442,27.293372],[-82.530428,27.294278],[-82.530426,27.294358],[-82.530423,27.294467],[-82.53042,27.294829],[-82.530418,27.295055],[-82.53041,27.295144],[-82.53041,27.295222],[-82.530512,27.295222],[-82.530768,27.295222],[-82.531143,27.295221],[-82.531445,27.295221],[-82.532144,27.295221],[-82.533015,27.29522],[-82.533636,27.29522],[-82.533632,27.295479],[-82.533631,27.295596],[-82.533624,27.296071],[-82.533624,27.296087],[-82.533442,27.296087],[-82.533011,27.296086],[-82.53301,27.296237],[-82.533009,27.296503],[-82.533008,27.296769],[-82.533007,27.296934],[-82.533008,27.297068],[-82.534932,27.297075],[-82.535297,27.297077],[-82.535297,27.297092],[-82.535291,27.297638],[-82.535291,27.297819],[-82.535291,27.297976],[-82.535291,27.29805],[-82.535291,27.298332],[-82.535291,27.298465],[-82.535291,27.298816],[-82.535432,27.298946],[-82.535411,27.299257],[-82.535409,27.299289],[-82.535479,27.299288],[-82.535655,27.299288],[-82.535871,27.299287],[-82.536155,27.299288],[-82.536405,27.299289],[-82.536428,27.298942],[-82.536768,27.298938],[-82.536744,27.299307],[-82.536819,27.299309],[-82.537497,27.299314],[-82.5375,27.299277],[-82.537503,27.299249],[-82.53752,27.298944],[-82.53752,27.298928],[-82.538135,27.298927],[-82.538288,27.298936],[-82.538605,27.298936],[-82.538716,27.298936],[-82.538715,27.29879],[-82.538712,27.298256],[-82.539328,27.298256],[-82.539329,27.298941],[-82.541279,27.298806],[-82.541337,27.298787],[-82.542101,27.298801],[-82.542124,27.298838],[-82.542164,27.298847],[-82.542495,27.298958],[-82.543182,27.298963],[-82.543838,27.29923],[-82.551282,27.298995],[-82.551284,27.29907],[-82.55129,27.29948],[-82.552406,27.299483],[-82.55352,27.299485],[-82.553601,27.29949],[-82.553597,27.299175],[-82.553631,27.299173],[-82.553816,27.299088],[-82.554121,27.299086],[-82.554208,27.299102],[-82.554309,27.29909],[-82.554524,27.29909],[-82.554533,27.299478],[-82.555687,27.299488],[-82.55596,27.299495],[-82.556224,27.299502],[-82.556923,27.299488],[-82.557003,27.299486],[-82.556997,27.29933],[-82.557295,27.299327],[-82.557348,27.299326],[-82.557656,27.299322],[-82.557653,27.299336],[-82.557653,27.299336],[-82.557651,27.299345],[-82.557647,27.299365],[-82.557646,27.299368],[-82.557622,27.299471],[-82.557778,27.29946],[-82.557778,27.29946],[-82.557803,27.299349],[-82.557958,27.299344],[-82.558094,27.299341],[-82.558116,27.29934],[-82.558101,27.299407],[-82.55809,27.299455],[-82.558777,27.299412],[-82.55907,27.299377],[-82.559068,27.299361],[-82.559444,27.299356],[-82.559555,27.299295],[-82.559601,27.29927],[-82.559788,27.299273],[-82.559925,27.299276],[-82.560261,27.299291],[-82.560661,27.299309],[-82.560661,27.298869],[-82.563404,27.294344],[-82.564373,27.29434],[-82.565598,27.294504],[-82.566414,27.294833],[-82.56725,27.295171],[-82.571559,27.299063],[-82.571982,27.299906],[-82.573313,27.302384],[-82.574503,27.304945],[-82.575645,27.307255],[-82.575953,27.307584],[-82.576901,27.308597],[-82.578486,27.310189],[-82.579953,27.311613],[-82.581374,27.313207],[-82.582796,27.314522],[-82.583409,27.315176],[-82.584354,27.315761],[-82.585535,27.316429],[-82.586266,27.316635],[-82.586714,27.316761],[-82.587849,27.317556],[-82.588796,27.31852],[-82.590784,27.323477],[-82.590787,27.324078],[-82.590796,27.325582],[-82.584606,27.331071],[-82.582045,27.333342],[-82.578351,27.337053],[-82.57686,27.338552],[-82.576851,27.344893],[-82.576847,27.347576],[-82.576831,27.359334],[-82.576811,27.373942],[-82.576799,27.382895],[-82.576791,27.389152],[-82.569543,27.389125],[-82.56548,27.389109],[-82.564613,27.386517],[-82.560657,27.386539],[-82.560661,27.387023],[-82.560346,27.387025],[-82.560289,27.387026],[-82.560237,27.387039],[-82.560192,27.387058],[-82.560156,27.387081],[-82.560128,27.387105],[-82.560098,27.38714],[-82.560079,27.387171],[-82.560067,27.3872],[-82.56006,27.387225],[-82.560057,27.387951],[-82.559996,27.388005],[-82.559226,27.388001],[-82.558946,27.387702],[-82.558448,27.386287],[-82.55782,27.386282],[-82.557903,27.386662],[-82.556319,27.386645],[-82.556313,27.386265],[-82.554992,27.386267],[-82.554895,27.385889],[-82.554795,27.385595],[-82.546848,27.385477],[-82.545152,27.385472],[-82.543237,27.385467],[-82.543241,27.383925],[-82.543247,27.381666],[-82.542784,27.381668],[-82.542708,27.381668],[-82.542699,27.379013],[-82.542743,27.379013],[-82.542787,27.379014],[-82.542787,27.378777],[-82.542789,27.378162],[-82.542787,27.376788],[-82.542796,27.37457],[-82.54289,27.374572],[-82.542891,27.374179],[-82.5432,27.374181],[-82.543201,27.374044],[-82.543201,27.373653],[-82.542894,27.373652],[-82.542895,27.373259],[-82.543239,27.37326],[-82.54324,27.373123],[-82.543204,27.373123],[-82.543206,27.372731],[-82.543241,27.372732],[-82.543246,27.371469],[-82.542937,27.371468],[-82.542939,27.371192],[-82.542938,27.370916],[-82.543157,27.370917],[-82.543164,27.370864],[-82.54317,27.37081],[-82.54317,27.370521],[-82.542989,27.37052],[-82.542988,27.370229],[-82.54325,27.37023],[-82.54325,27.370067],[-82.543144,27.370066],[-82.543145,27.369781],[-82.542991,27.369781],[-82.542989,27.369496],[-82.543252,27.369495],[-82.543255,27.368598],[-82.542994,27.368596],[-82.542995,27.368312],[-82.543256,27.368313],[-82.543259,27.367553],[-82.543259,27.367487],[-82.543195,27.367281],[-82.543099,27.367065],[-82.542518,27.367064],[-82.541774,27.367061],[-82.53884,27.367025],[-82.537819,27.36702],[-82.536557,27.367015],[-82.536556,27.367205],[-82.536558,27.367388],[-82.536561,27.367803],[-82.535329,27.367796],[-82.535328,27.367198],[-82.535323,27.367],[-82.534615,27.367006],[-82.531913,27.366978],[-82.530411,27.366962],[-82.53041,27.36701],[-82.530409,27.367101],[-82.529328,27.367098],[-82.529306,27.366979],[-82.529145,27.366082],[-82.529116,27.365927],[-82.529068,27.36567],[-82.528896,27.364747],[-82.528397,27.362076],[-82.528614,27.362077],[-82.52861,27.362013],[-82.52835,27.35957],[-82.527957,27.359573],[-82.527286,27.355944],[-82.527688,27.355939],[-82.527408,27.354418],[-82.527001,27.354423],[-82.526778,27.353216],[-82.52719,27.35322],[-82.526912,27.351745],[-82.526296,27.351745],[-82.522133,27.351829],[-82.521122,27.351852],[-82.521123,27.352141],[-82.51992,27.35215],[-82.519917,27.352394],[-82.519912,27.35302],[-82.519535,27.353018],[-82.519345,27.353018],[-82.51886,27.35302],[-82.518861,27.352982],[-82.518861,27.352927],[-82.518862,27.352827],[-82.518781,27.352827],[-82.518493,27.352829],[-82.518494,27.35275],[-82.518495,27.352605],[-82.518498,27.352382],[-82.518852,27.352379],[-82.519068,27.352156],[-82.51906,27.351853],[-82.518233,27.351858],[-82.51719,27.351866],[-82.517191,27.352176],[-82.516532,27.35218],[-82.516532,27.352165],[-82.516455,27.352166],[-82.516455,27.351872],[-82.515235,27.351912],[-82.515235,27.352187],[-82.514237,27.352193],[-82.51414,27.35209],[-82.51414,27.351964],[-82.514017,27.351964],[-82.497407,27.351933],[-82.497407,27.352174],[-82.49347,27.352152],[-82.4935,27.352118],[-82.493562,27.352064],[-82.492878,27.35206],[-82.491276,27.352051],[-82.489813,27.352042],[-82.489104,27.352038],[-82.489104,27.352179],[-82.488638,27.352176],[-82.485168,27.352165],[-82.484996,27.352165],[-82.483414,27.35216],[-82.483414,27.351869],[-82.481833,27.35187],[-82.481845,27.348565],[-82.480813,27.34857],[-82.480819,27.346761],[-82.48082,27.346619],[-82.48082,27.346476],[-82.478716,27.346471],[-82.478758,27.34483],[-82.478711,27.34483],[-82.478711,27.343057],[-82.479051,27.34306],[-82.479043,27.341284],[-82.480576,27.341287],[-82.480844,27.341285],[-82.481879,27.341263],[-82.481889,27.337818],[-82.481863,27.33746],[-82.481071,27.337525],[-82.48102,27.337417],[-82.481026,27.336212],[-82.480958,27.336214],[-82.48096,27.335881],[-82.480962,27.335468],[-82.480963,27.335331],[-82.48097,27.334086],[-82.4819,27.334073],[-82.48192,27.33193],[-82.485085,27.331882],[-82.48915,27.33182],[-82.489155,27.33032],[-82.489155,27.33032],[-82.48928,27.330317],[-82.489341,27.330316],[-82.489537,27.330312],[-82.489538,27.330296],[-82.490461,27.330277],[-82.49097,27.330261],[-82.491367,27.330249],[-82.491733,27.33032],[-82.491937,27.330352],[-82.492039,27.330367],[-82.492141,27.330381],[-82.492247,27.330393],[-82.492353,27.330405],[-82.492463,27.330416],[-82.492567,27.330425],[-82.492699,27.330435],[-82.49283,27.330443],[-82.493014,27.330451],[-82.493163,27.330455],[-82.493313,27.330456],[-82.493313,27.330347],[-82.493714,27.330364],[-82.494396,27.330341],[-82.496452,27.33036],[-82.496309,27.330426],[-82.496226,27.330471],[-82.496095,27.330554],[-82.49602,27.330608],[-82.495925,27.330686],[-82.495859,27.330748],[-82.495796,27.330814],[-82.495736,27.330882],[-82.495664,27.330977],[-82.495599,27.331076],[-82.495556,27.331153],[-82.495517,27.331232],[-82.495492,27.331289],[-82.495481,27.331316],[-82.495471,27.331343],[-82.495461,27.331371],[-82.495449,27.331408],[-82.49544,27.331436],[-82.495427,27.331482],[-82.495414,27.331539],[-82.495403,27.331593],[-82.495394,27.33165],[-82.495387,27.331707],[-82.495384,27.331737],[-82.495545,27.331678],[-82.496501,27.331675],[-82.496502,27.33151],[-82.496503,27.33149],[-82.496867,27.331492],[-82.496866,27.331663],[-82.497466,27.331668],[-82.497478,27.330364],[-82.497596,27.330364],[-82.498115,27.330366],[-82.498112,27.330355],[-82.498129,27.330355],[-82.498196,27.330354],[-82.498197,27.330367],[-82.498585,27.330368]]]}},{"type":"Feature","properties":{"area_slug":"city-of-sarasota","zone_name":"City of Sarasota \u2014 north enclave","zone_type":"municipality","acres":16.5},"geometry":{"type":"Polygon","coordinates":[[[-82.541041,27.37816],[-82.54107,27.37816],[-82.541204,27.378161],[-82.541368,27.378162],[-82.541531,27.378163],[-82.541694,27.378164],[-82.541858,27.378165],[-82.542021,27.378166],[-82.542184,27.378167],[-82.54243,27.378169],[-82.542483,27.378169],[-82.542473,27.381638],[-82.542428,27.381638],[-82.540947,27.381624],[-82.540718,27.381622],[-82.540725,27.378157],[-82.541041,27.37816]]]}}]}